[{"OBJECT_NAME":"GUANGCHUAN 01","OBJECT_ID":"2024-221A","EPOCH":"2026-03-09T23:52:27.422976","MEAN_MOTION":15.16881016,"ECCENTRICITY":0.00068686,"INCLINATION":49.9429,"RA_OF_ASC_NODE":284.8759,"ARG_OF_PERICENTER":260.2955,"MEAN_ANOMALY":99.7221,"EPHEMERIS_TYPE":0,"CLASSIFICATION_TYPE":"U","NORAD_CAT_ID":62111,"ELEMENT_SET_NO":999,"REV_AT_EPOCH":7115,"BSTAR":0.00030732874,"MEAN_MOTION_DOT":5.834e-5,"MEAN_MOTION_DDOT":0},{"OBJECT_NAME":"SHIJIAN-30A (SJ-30A)","OBJECT_ID":"2025-266A","EPOCH":"2026-03-09T22:15:16.108992","MEAN_MOTION":15.15342199,"ECCENTRICITY":0.00113033,"INCLINATION":51.7972,"RA_OF_ASC_NODE":284.3677,"ARG_OF_PERICENTER":291.808,"MEAN_ANOMALY":68.1693,"EPHEMERIS_TYPE":0,"CLASSIFICATION_TYPE":"U","NORAD_CAT_ID":66545,"ELEMENT_SET_NO":999,"REV_AT_EPOCH":1680,"BSTAR":0.00051940463,"MEAN_MOTION_DOT":9.633e-5,"MEAN_MOTION_DDOT":0}]
